[{"OBJECT_NAME":"SAUDISAT 1C","OBJECT_ID":"2002-058C","EPOCH":"2023-04-27T07:47:19.731552","MEAN_MOTION":14.77159852,"ECCENTRICITY":0.0073316,"INCLINATION":64.5562,"RA_OF_ASC_NODE":60.8454,"ARG_OF_PERICENTER":234.8845,"MEAN_ANOMALY":124.5372,"EPHEMERIS_TYPE":0,"CLASSIFICATION_TYPE":"U","NORAD_CAT_ID":27607,"ELEMENT_SET_NO":999,"REV_AT_EPOCH":9492,"BSTAR":0.00022787,"MEAN_MOTION_DOT":1.541e-5,"MEAN_MOTION_DDOT":0},{"OBJECT_NAME":"SAUDISAT 2","OBJECT_ID":"2004-025F","EPOCH":"2023-04-27T11:50:43.040544","MEAN_MOTION":14.54889025,"ECCENTRICITY":0.0024708,"INCLINATION":98.4258,"RA_OF_ASC_NODE":80.7104,"ARG_OF_PERICENTER":217.4161,"MEAN_ANOMALY":142.5309,"EPHEMERIS_TYPE":0,"CLASSIFICATION_TYPE":"U","NORAD_CAT_ID":28371,"ELEMENT_SET_NO":999,"REV_AT_EPOCH":99894,"BSTAR":0.00017274,"MEAN_MOTION_DOT":6.97e-6,"MEAN_MOTION_DDOT":0},{"OBJECT_NAME":"SAUDISAT 3","OBJECT_ID":"2007-012B","EPOCH":"2023-04-27T10:11:03.917760","MEAN_MOTION":14.69645235,"ECCENTRICITY":0.0013633,"INCLINATION":98.0096,"RA_OF_ASC_NODE":62.6113,"ARG_OF_PERICENTER":277.3216,"MEAN_ANOMALY":82.6441,"EPHEMERIS_TYPE":0,"CLASSIFICATION_TYPE":"U","NORAD_CAT_ID":31118,"ELEMENT_SET_NO":999,"REV_AT_EPOCH":85926,"BSTAR":9.975e-5,"MEAN_MOTION_DOT":5.45e-6,"MEAN_MOTION_DDOT":0},{"OBJECT_NAME":"PISAT","OBJECT_ID":"2016-059B","EPOCH":"2023-04-26T21:19:41.149344","MEAN_MOTION":14.64579868,"ECCENTRICITY":0.0029923,"INCLINATION":97.8749,"RA_OF_ASC_NODE":152.4294,"ARG_OF_PERICENTER":256.87,"MEAN_ANOMALY":102.9164,"EPHEMERIS_TYPE":0,"CLASSIFICATION_TYPE":"U","NORAD_CAT_ID":41784,"ELEMENT_SET_NO":999,"REV_AT_EPOCH":35155,"BSTAR":0.00025721,"MEAN_MOTION_DOT":1.327e-5,"MEAN_MOTION_DDOT":0},{"OBJECT_NAME":"FLYING LAPTOP","OBJECT_ID":"2017-042G","EPOCH":"2023-04-27T03:40:54.861600","MEAN_MOTION":14.92921908,"ECCENTRICITY":0.0014551,"INCLINATION":97.3942,"RA_OF_ASC_NODE":317.9733,"ARG_OF_PERICENTER":42.1071,"MEAN_ANOMALY":318.1237,"EPHEMERIS_TYPE":0,"CLASSIFICATION_TYPE":"U","NORAD_CAT_ID":42831,"ELEMENT_SET_NO":999,"REV_AT_EPOCH":31487,"BSTAR":0.00022022,"MEAN_MOTION_DOT":2.236e-5,"MEAN_MOTION_DDOT":0},{"OBJECT_NAME":"SALSAT","OBJECT_ID":"2020-068K","EPOCH":"2023-04-26T09:55:37.081632","MEAN_MOTION":15.07250833,"ECCENTRICITY":0.0014146,"INCLINATION":97.7654,"RA_OF_ASC_NODE":63.9013,"ARG_OF_PERICENTER":299.2467,"MEAN_ANOMALY":60.7345,"EPHEMERIS_TYPE":0,"CLASSIFICATION_TYPE":"U","NORAD_CAT_ID":46495,"ELEMENT_SET_NO":999,"REV_AT_EPOCH":14127,"BSTAR":0.00031331,"MEAN_MOTION_DOT":4.668e-5,"MEAN_MOTION_DDOT":0}]
